[{"OBJECT_NAME":"DMSP 5D-3 F16 (USA 172)","OBJECT_ID":"2003-048A","EPOCH":"2026-03-04T18:10:01.068384","MEAN_MOTION":14.14459857,"ECCENTRICITY":0.0008201,"INCLINATION":98.9997,"RA_OF_ASC_NODE":86.8469,"ARG_OF_PERICENTER":84.9216,"MEAN_ANOMALY":336.4634,"EPHEMERIS_TYPE":0,"CLASSIFICATION_TYPE":"U","NORAD_CAT_ID":28054,"ELEMENT_SET_NO":999,"REV_AT_EPOCH":15472,"BSTAR":0.00012635,"MEAN_MOTION_DOT":1.97e-6,"MEAN_MOTION_DDOT":0},{"OBJECT_NAME":"METEOSAT-9 (MSG-2)","OBJECT_ID":"2005-049B","EPOCH":"2026-03-04T02:16:25.023648","MEAN_MOTION":1.00277093,"ECCENTRICITY":0.00017958,"INCLINATION":9.1243,"RA_OF_ASC_NODE":55.1851,"ARG_OF_PERICENTER":221.3911,"MEAN_ANOMALY":325.1022,"EPHEMERIS_TYPE":0,"CLASSIFICATION_TYPE":"U","NORAD_CAT_ID":28912,"ELEMENT_SET_NO":999,"REV_AT_EPOCH":594,"BSTAR":0,"MEAN_MOTION_DOT":1.15e-6,"MEAN_MOTION_DDOT":0},{"OBJECT_NAME":"DMSP 5D-3 F17 (USA 191)","OBJECT_ID":"2006-050A","EPOCH":"2026-03-04T19:10:18.689088","MEAN_MOTION":14.1496139,"ECCENTRICITY":0.0010033,"INCLINATION":98.7413,"RA_OF_ASC_NODE":72.4934,"ARG_OF_PERICENTER":0.9945,"MEAN_ANOMALY":359.1247,"EPHEMERIS_TYPE":0,"CLASSIFICATION_TYPE":"U","NORAD_CAT_ID":29522,"ELEMENT_SET_NO":999,"REV_AT_EPOCH":99765,"BSTAR":0.00014447,"MEAN_MOTION_DOT":2.36e-6,"MEAN_MOTION_DDOT":0},{"OBJECT_NAME":"FENGYUN 3A","OBJECT_ID":"2008-026A","EPOCH":"2026-03-04T10:46:22.401696","MEAN_MOTION":14.19544519,"ECCENTRICITY":0.00097998,"INCLINATION":98.6792,"RA_OF_ASC_NODE":6.2962,"ARG_OF_PERICENTER":71.7613,"MEAN_ANOMALY":288.4629,"EPHEMERIS_TYPE":0,"CLASSIFICATION_TYPE":"U","NORAD_CAT_ID":32958,"ELEMENT_SET_NO":999,"REV_AT_EPOCH":92054,"BSTAR":9.9149656e-5,"MEAN_MOTION_DOT":1.66e-6,"MEAN_MOTION_DDOT":0},{"OBJECT_NAME":"GOES 14","OBJECT_ID":"2009-033A","EPOCH":"2026-03-04T13:06:38.680128","MEAN_MOTION":1.00124457,"ECCENTRICITY":0.0002261,"INCLINATION":1.4193,"RA_OF_ASC_NODE":84.42,"ARG_OF_PERICENTER":298.8338,"MEAN_ANOMALY":177.4573,"EPHEMERIS_TYPE":0,"CLASSIFICATION_TYPE":"U","NORAD_CAT_ID":35491,"ELEMENT_SET_NO":999,"REV_AT_EPOCH":554,"BSTAR":0,"MEAN_MOTION_DOT":1.18e-6,"MEAN_MOTION_DDOT":0},{"OBJECT_NAME":"DMSP 5D-3 F18 (USA 210)","OBJECT_ID":"2009-057A","EPOCH":"2026-03-04T18:17:19.529376","MEAN_MOTION":14.1483223,"ECCENTRICITY":0.0010849,"INCLINATION":98.8956,"RA_OF_ASC_NODE":44.8081,"ARG_OF_PERICENTER":182.2729,"MEAN_ANOMALY":177.8397,"EPHEMERIS_TYPE":0,"CLASSIFICATION_TYPE":"U","NORAD_CAT_ID":35951,"ELEMENT_SET_NO":999,"REV_AT_EPOCH":84482,"BSTAR":0.00020088,"MEAN_MOTION_DOT":3.43e-6,"MEAN_MOTION_DDOT":0},{"OBJECT_NAME":"EWS-G2 (GOES 15)","OBJECT_ID":"2010-008A","EPOCH":"2026-03-04T15:35:18.919392","MEAN_MOTION":1.00269311,"ECCENTRICITY":0.0001885,"INCLINATION":1.0095,"RA_OF_ASC_NODE":85.1375,"ARG_OF_PERICENTER":20.0724,"MEAN_ANOMALY":354.4917,"EPHEMERIS_TYPE":0,"CLASSIFICATION_TYPE":"U","NORAD_CAT_ID":36411,"ELEMENT_SET_NO":999,"REV_AT_EPOCH":5859,"BSTAR":0,"MEAN_MOTION_DOT":1.1e-7,"MEAN_MOTION_DDOT":0},{"OBJECT_NAME":"COMS 1","OBJECT_ID":"2010-032A","EPOCH":"2026-03-04T17:00:33.034752","MEAN_MOTION":1.00272271,"ECCENTRICITY":0.00012,"INCLINATION":4.5366,"RA_OF_ASC_NODE":76.8652,"ARG_OF_PERICENTER":284.1468,"MEAN_ANOMALY":184.7502,"EPHEMERIS_TYPE":0,"CLASSIFICATION_TYPE":"U","NORAD_CAT_ID":36744,"ELEMENT_SET_NO":999,"REV_AT_EPOCH":5004,"BSTAR":0,"MEAN_MOTION_DOT":-3.53e-6,"MEAN_MOTION_DDOT":0},{"OBJECT_NAME":"FENGYUN 3B","OBJECT_ID":"2010-059A","EPOCH":"2026-03-04T20:58:02.165952","MEAN_MOTION":14.14814852,"ECCENTRICITY":0.002301,"INCLINATION":98.9774,"RA_OF_ASC_NODE":109.3802,"ARG_OF_PERICENTER":121.228,"MEAN_ANOMALY":52.8588,"EPHEMERIS_TYPE":0,"CLASSIFICATION_TYPE":"U","NORAD_CAT_ID":37214,"ELEMENT_SET_NO":999,"REV_AT_EPOCH":79267,"BSTAR":-8.9757e-6,"MEAN_MOTION_DOT":-6.2e-7,"MEAN_MOTION_DDOT":0},{"OBJECT_NAME":"SUOMI NPP","OBJECT_ID":"2011-061A","EPOCH":"2026-03-04T19:25:23.367072","MEAN_MOTION":14.19541928,"ECCENTRICITY":4.07e-5,"INCLINATION":98.7865,"RA_OF_ASC_NODE":5.4509,"ARG_OF_PERICENTER":278.2565,"MEAN_ANOMALY":81.8564,"EPHEMERIS_TYPE":0,"CLASSIFICATION_TYPE":"U","NORAD_CAT_ID":37849,"ELEMENT_SET_NO":999,"REV_AT_EPOCH":74363,"BSTAR":8.26e-5,"MEAN_MOTION_DOT":1.3e-6,"MEAN_MOTION_DDOT":0},{"OBJECT_NAME":"METEOSAT-10 (MSG-3)","OBJECT_ID":"2012-035B","EPOCH":"2026-03-04T09:10:38.507232","MEAN_MOTION":1.0027742,"ECCENTRICITY":0.00024971,"INCLINATION":4.4237,"RA_OF_ASC_NODE":61.4637,"ARG_OF_PERICENTER":294.9203,"MEAN_ANOMALY":303.69,"EPHEMERIS_TYPE":0,"CLASSIFICATION_TYPE":"U","NORAD_CAT_ID":38552,"ELEMENT_SET_NO":999,"REV_AT_EPOCH":4980,"BSTAR":0,"MEAN_MOTION_DOT":-1.3e-7,"MEAN_MOTION_DDOT":0},{"OBJECT_NAME":"METOP-B","OBJECT_ID":"2012-049A","EPOCH":"2026-03-04T19:10:53.400288","MEAN_MOTION":14.21442831,"ECCENTRICITY":0.0001211,"INCLINATION":98.6652,"RA_OF_ASC_NODE":117.3153,"ARG_OF_PERICENTER":292.8179,"MEAN_ANOMALY":67.287,"EPHEMERIS_TYPE":0,"CLASSIFICATION_TYPE":"U","NORAD_CAT_ID":38771,"ELEMENT_SET_NO":999,"REV_AT_EPOCH":69843,"BSTAR":9.4396e-5,"MEAN_MOTION_DOT":1.63e-6,"MEAN_MOTION_DDOT":0},{"OBJECT_NAME":"INSAT-3D","OBJECT_ID":"2013-038B","EPOCH":"2026-03-04T20:30:35.352576","MEAN_MOTION":1.00273268,"ECCENTRICITY":0.0001748,"INCLINATION":1.6566,"RA_OF_ASC_NODE":83.9077,"ARG_OF_PERICENTER":242.999,"MEAN_ANOMALY":272.8215,"EPHEMERIS_TYPE":0,"CLASSIFICATION_TYPE":"U","NORAD_CAT_ID":39216,"ELEMENT_SET_NO":999,"REV_AT_EPOCH":4603,"BSTAR":0,"MEAN_MOTION_DOT":-3.48e-6,"MEAN_MOTION_DDOT":0},{"OBJECT_NAME":"FENGYUN 3C","OBJECT_ID":"2013-052A","EPOCH":"2026-03-04T20:52:43.362048","MEAN_MOTION":14.15727164,"ECCENTRICITY":0.0014056,"INCLINATION":98.4884,"RA_OF_ASC_NODE":42.5915,"ARG_OF_PERICENTER":327.7586,"MEAN_ANOMALY":32.2728,"EPHEMERIS_TYPE":0,"CLASSIFICATION_TYPE":"U","NORAD_CAT_ID":39260,"ELEMENT_SET_NO":999,"REV_AT_EPOCH":64380,"BSTAR":0.0001007,"MEAN_MOTION_DOT":1.56e-6,"MEAN_MOTION_DDOT":0},{"OBJECT_NAME":"METEOR-M 2","OBJECT_ID":"2014-037A","EPOCH":"2026-03-04T19:49:55.984224","MEAN_MOTION":14.21426135,"ECCENTRICITY":0.000565,"INCLINATION":98.5015,"RA_OF_ASC_NODE":43.3165,"ARG_OF_PERICENTER":352.256,"MEAN_ANOMALY":7.853,"EPHEMERIS_TYPE":0,"CLASSIFICATION_TYPE":"U","NORAD_CAT_ID":40069,"ELEMENT_SET_NO":999,"REV_AT_EPOCH":60449,"BSTAR":3.942e-5,"MEAN_MOTION_DOT":4.4e-7,"MEAN_MOTION_DDOT":0},{"OBJECT_NAME":"HIMAWARI-8","OBJECT_ID":"2014-060A","EPOCH":"2026-03-04T19:50:13.555392","MEAN_MOTION":1.0027187,"ECCENTRICITY":7.56e-5,"INCLINATION":0.0299,"RA_OF_ASC_NODE":245.7583,"ARG_OF_PERICENTER":85.3606,"MEAN_ANOMALY":269.6539,"EPHEMERIS_TYPE":0,"CLASSIFICATION_TYPE":"U","NORAD_CAT_ID":40267,"ELEMENT_SET_NO":999,"REV_AT_EPOCH":4171,"BSTAR":0,"MEAN_MOTION_DOT":-2.86e-6,"MEAN_MOTION_DDOT":0},{"OBJECT_NAME":"FENGYUN 2G","OBJECT_ID":"2014-090A","EPOCH":"2026-03-04T12:28:45.807168","MEAN_MOTION":1.00274479,"ECCENTRICITY":0.00018634,"INCLINATION":5.3743,"RA_OF_ASC_NODE":74.0854,"ARG_OF_PERICENTER":152.9569,"MEAN_ANOMALY":222.0917,"EPHEMERIS_TYPE":0,"CLASSIFICATION_TYPE":"U","NORAD_CAT_ID":40367,"ELEMENT_SET_NO":999,"REV_AT_EPOCH":4095,"BSTAR":0,"MEAN_MOTION_DOT":-3.11e-6,"MEAN_MOTION_DDOT":0}]
